OBJECT_NAME,OBJECT_ID,EPOCH,MEAN_MOTION,ECCENTRICITY,INCLINATION,RA_OF_ASC_NODE,ARG_OF_PERICENTER,MEAN_ANOMALY,EPHEMERIS_TYPE,CLASSIFICATION_TYPE,NORAD_CAT_ID,ELEMENT_SET_NO,REV_AT_EPOCH,BSTAR,MEAN_MOTION_DOT,MEAN_MOTION_DDOT
OPS 6582 (TRANSIT 5B-5),1964-083D,2026-07-16T01:44:35.314944,13.57015161,.0041165,90.0759,203.2703,190.5263,235.8988,0,U,965,999,4753,.24008E-4,.26E-6,0
LES-1,1965-008C,2026-07-15T10:28:15.295296,9.88354786,.00153128,32.1480,337.7932,11.4951,348.5894,0,U,1002,999,21898,.14074626E-3,.9E-7,0
SOLRAD 7B,1965-016D,2026-07-16T03:38:31.447104,13.94978661,.001842,70.0777,174.6844,81.9863,278.3332,0,U,1291,999,12074,.19861E-4,-.25E-6,0
SECOR 4 (EGRS 4),1965-027B,2026-07-15T23:48:15.095232,12.92668167,.0032604,90.2491,16.2254,123.4522,30.7079,0,U,1315,999,89064,.15729E-3,.5E-6,0
TIROS 10,1965-051A,2026-07-15T21:58:48.522432,14.41639736,.0055055,98.5067,316.1245,354.0819,5.9713,0,U,1430,999,20005,.2482E-4,.37E-6,0
ALOUETTE 2,1965-098A,2026-07-16T01:56:30.082272,12.28375379,.1330831,79.7967,252.0675,173.9325,187.9872,0,U,1804,999,68282,.97594E-4,.311E-5,0
OV3-3,1966-070A,2026-07-16T03:11:33.306432,13.46259739,.1008564,81.3276,305.4618,82.5615,288.8802,0,U,2389,999,60286,.34722E-3,.7877E-4,0
SECOR 7 (EGRS 7),1966-077B,2026-07-16T04:36:45.006912,8.59615204,.0010982,90.3355,277.7833,30.0122,330.1357,0,U,2411,999,87987,.13417E-1,.29E-6,0
ERS 15,1966-077C,2026-07-16T05:02:10.697856,8.59079588,.0006824,90.3365,277.5762,40.8488,319.2874,0,U,2412,999,39295,0,.2E-7,0
ISIS 1,1969-009A,2026-07-15T20:54:05.862816,11.30436632,.1707151,88.4451,141.2501,190.2908,165.8508,0,U,3669,999,36301,.29122E-4,.51E-6,0
SECOR 13 (EGRS 13),1969-037B,2026-07-16T03:53:55.589280,13.42978006,.0039442,99.6445,67.3863,179.0344,306.2583,0,U,3891,999,80564,.33276E-4,-.23E-6,0
ATS 5,1969-069A,2026-07-16T03:20:33.596736,0.99487776,.0005228,0.2946,138.5052,136.8550,128.8811,0,U,4068,999,4661,0,.102E-5,0
OPS 7613 (P/L 4),1969-082E,2026-07-16T01:31:00.091200,13.96000510,.0017932,70.0146,42.2037,92.7596,67.4228,0,U,4237,999,89033,.25513E-4,-.18E-6,0
OPS 7613 (P/L 1),1969-082B,2026-07-16T02:49:17.438016,13.99203419,.0018521,70.0089,262.8652,19.8292,340.3531,0,U,4256,999,89451,.42895E-4,.9E-7,0
SHINSEI (MS-F2),1971-080A,2026-07-15T16:36:32.259456,12.74254713,.06401421,32.0591,339.7880,227.5843,126.8850,0,U,5485,999,55289,.75822563E-4,.7E-6,0
PROSPERO (BLACK ARROW),1971-093A,2026-07-15T06:47:48.843744,14.01692333,.05019564,82.0378,266.1674,146.4697,216.9346,0,U,5580,999,75246,.14636595E-3,.712E-5,0
OPS 7898 (P/L 2),1971-110C,2026-07-15T13:06:22.957920,13.74760865,.00062522,69.9910,304.3950,150.2770,209.8681,0,U,5680,999,35211,.35114456E-4,-.17E-6,0
NOAA 2 (ITOS-D),1972-082A,2026-07-16T00:19:12.469728,12.53215912,.0004562,102.0076,215.9003,113.7431,273.9416,0,U,6235,999,45856,.90084E-4,-.32E-6,0
OSCAR 7 (AO-7),1974-089B,2026-07-16T00:31:05.102976,12.53698596,.0012657,101.9906,210.5687,76.8170,307.7324,0,U,7530,999,36413,.58784E-4,-.37E-6,0
TIROS N,1978-096A,2026-07-16T00:58:11.949312,14.19382671,.0010953,98.4529,216.7859,152.6637,207.5119,0,U,11060,999,68284,.40142E-4,.43E-6,0
PHASE 3B (AO-10),1983-058B,2026-07-13T02:29:46.528800,2.05872336,.60022234,25.9345,215.2934,122.7887,309.2966,0,U,14129,999,29602,0,-.187E-5,0
HILAT,1983-063A,2026-07-16T04:26:32.964864,14.38727866,.0038537,82.0254,134.0698,200.8387,295.2030,0,U,14154,999,25175,.52558E-4,.178E-5,0
UOSAT 2 (UO-11),1984-021B,2026-07-15T21:08:41.691840,14.90849797,.0009246,97.8076,162.1394,89.5955,270.6323,0,U,14781,999,26140,.57146E-4,.507E-5,0
NOAA 9,1984-123A,2026-07-16T01:46:50.071296,14.17075126,.001356,99.0983,224.3806,267.9267,114.7469,0,U,15427,999,14751,.36977E-4,.28E-6,0
GEOSAT,1985-021A,2026-07-15T18:29:31.380576,14.39979056,.00018301,108.0409,140.9262,295.3294,64.7658,0,U,15595,999,16688,.45013377E-4,.6E-7,0
EUTELSAT 1-F4 (ECS 4),1987-078B,2026-07-14T17:34:14.558016,0.98691522,.00099542,13.8087,341.9312,47.0682,321.3838,0,U,18351,999,12703,0,-.276E-5,0
PACSAT (AO-16),1990-005D,2026-07-16T01:19:51.065760,14.33944918,.0011303,98.8512,233.4103,142.4544,247.5211,0,U,20439,999,90607,.32933E-4,.46E-6,0
LUSAT (LO-19),1990-005G,2026-07-15T23:54:45.834912,14.34130880,.001256,98.8847,219.5949,119.2516,240.9925,0,U,20442,999,90652,.28309E-4,.33E-6,0
IRS-1B,1991-061A,2026-07-16T00:52:10.964928,13.97878147,.0023186,99.4117,205.7020,285.9002,138.4287,0,U,21688,999,67252,.24448E-3,.3E-5,0
COSMOS 2197,1992-042A,2026-07-16T02:44:54.356064,12.64252781,.0012141,82.5918,210.4501,202.9649,220.5239,0,U,22034,999,56894,.26157E-4,.15E-6,0
PEGASUS R/B,1993-009C,2026-07-15T09:23:25.412640,14.58000666,.00442331,24.9773,272.5304,51.3692,309.0768,0,U,22491,999,77375,.57717168E-4,.478E-5,0
EYESAT A (AO-27),1993-061C,2026-07-16T03:47:34.094400,14.30949207,.0008709,98.6867,264.5590,23.1959,336.9615,0,U,22825,999,71114,.31913E-4,.39E-6,0
ITAMSAT (IO-26),1993-061D,2026-07-16T03:05:28.141152,14.31376814,.0008906,98.6815,264.4502,6.6697,353.4603,0,U,22826,999,71145,.31862E-4,.4E-6,0
RADIO ROSTO (RS15),1994-085A,2026-07-16T04:56:38.540832,11.27583520,.0156952,64.8149,256.2858,358.5255,1.5187,0,U,23439,999,29917,.92423E-4,-.39E-6,0
JAS-2 (FO-29),1996-046B,2026-07-16T03:28:41.414592,13.53275760,.035032,98.5219,42.0475,21.4805,340.0632,0,U,24278,999,47708,.31662E-4,-.4E-7,0
FORTE,1997-047A,2026-07-15T17:52:37.590528,14.27955583,.00243305,69.9546,309.5157,242.7764,117.0879,0,U,24920,999,50276,.53464903E-4,.75E-6,0
NOAA 15,1998-030A,2026-07-16T05:04:03.554400,14.27154570,.0009006,98.5065,217.0591,261.4567,98.5593,0,U,25338,999,46543,.33817E-4,.4E-6,0
TECHSAT 1B (GO-32),1998-043D,2026-07-15T22:25:15.580704,14.24433441,.0002197,99.0086,190.4201,113.5065,246.6344,0,U,25397,999,45542,.2147E-4,.3E-7,0
ISS (ZARYA),1998-067A,2026-07-15T18:23:37.536288,15.49019038,.00067189,51.6311,158.6576,300.0875,59.9447,0,U,25544,999,57618,.82095193E-4,.4078E-4,0
ORSTED,1999-008B,2026-07-15T07:13:47.672544,14.51832579,.01335709,96.4802,97.4274,96.4187,265.2243,0,U,25635,999,44604,.75152862E-4,.309E-5,0
LANDSAT 7,1999-020A,2026-07-16T03:47:35.057760,14.63939036,.0001547,97.8590,199.4671,77.7445,355.2012,0,U,25682,999,45008,.42357E-4,.177E-5,0
ORBCOMM FM36,1999-065E,2026-07-16T04:38:25.073664,14.39248855,.0003783,45.0400,21.8789,121.0419,239.0802,0,U,25984,999,39116,.15201E-3,.333E-5,0
DMSP 5D-3 F15 (USA 147),1999-067A,2026-07-16T04:01:58.819296,14.17572087,.0008822,98.9949,236.0830,281.0789,167.6249,0,U,25991,999,37475,.58095E-4,.72E-6,0
OPAL (OO-38),2000-004C,2026-07-15T18:35:43.926144,14.37974486,.00352557,100.1911,138.8709,315.2472,44.5866,0,U,26063,999,38739,.33081949E-4,.41E-6,0
IMAGE,2000-017A,2026-07-10T09:33:22.635360,1.68666826,.74160542,94.2468,315.6762,285.1805,9.7435,0,U,26113,999,16189,0,-.42E-6,0
CLUSTER II-FM7 (SAMBA),2000-041A,2026-07-16T03:20:59.007840,0.44844033,.90886903,149.8273,56.2567,273.7641,359.2168,0,U,26410,999,2044,0,.51232E-3,-.58450349E-4
CLUSTER II-FM8 (TANGO),2000-045B,2026-07-14T10:49:09.907104,0.44416740,.9090382,150.0346,57.1658,274.4944,1.9905,0,U,26464,999,2043,0,.19808E-3,0
MEGSAT-1,2000-057B,2026-07-15T21:44:19.037760,15.05633539,.0043107,64.5496,337.0729,280.5248,79.1014,0,U,26546,999,40198,.1029E-3,.1334E-4,0
PHASE 3D (AO-40),2000-072B,2026-07-15T21:59:21.730272,1.25588930,.7933198,9.3885,346.3880,187.5196,142.2162,0,U,26609,999,11787,0,-.215E-5,0
ODIN,2001-007A,2026-07-16T02:59:18.555648,15.90027591,.0005116,97.3718,240.1907,154.6659,205.4866,0,U,26702,999,39397,.91398E-3,.271731E-2,.29034E-4
OMNI-M1,2001-026A,2026-07-15T12:15:20.524608,3.92402085,.00135289,44.8240,238.7352,57.8922,302.2996,0,U,26857,999,20668,0,.4E-7,0
PCSAT (NO-44),2001-043C,2026-07-16T01:48:17.989344,14.31965199,.0005919,67.0495,169.5533,266.6744,93.3681,0,U,26931,999,29458,.35829E-4,.13E-6,0
PROBA-1,2001-049B,2026-07-16T03:24:26.050752,15.07618680,.0055684,97.9599,206.6875,26.7516,333.6564,0,U,26958,999,34798,.83964E-4,.1251E-4,0
SPOT 5,2002-021A,2026-07-16T03:04:33.849984,14.54768812,.0129452,97.9835,234.7077,185.7992,174.1714,0,U,27421,999,26705,.44913E-4,.166E-5,0
FENGYUN 1D,2002-024B,2026-07-16T04:00:10.827072,14.10227888,.0015821,98.9506,247.3626,157.9126,202.2730,0,U,27431,999,24356,.34332E-6,-.44E-6,0
SAUDISAT 1C (SO-50),2002-058C,2026-07-16T03:36:55.096416,14.83099305,.0074499,64.5518,39.3689,257.0898,102.1880,0,U,27607,999,26875,.5936E-4,.35E-5,0
CORIOLIS,2003-001A,2026-07-16T00:24:56.333088,14.19951986,.0014952,98.7135,203.4625,126.9862,233.2685,0,U,27640,999,21831,.36149E-4,.33E-6,0
CUTE-1 (CO-55),2003-031E,2026-07-15T23:30:01.450944,14.24351837,.0010841,98.6744,205.1765,100.6537,259.5863,0,U,27844,999,19577,.75469E-4,.131E-5,0
CUBESAT XI-IV (CO-57),2003-031J,2026-07-15T23:34:14.617632,14.23634777,.0010566,98.6774,204.8688,117.3488,242.8767,0,U,27848,999,19547,.65012E-4,.105E-5,0
MOZHAETS 4 (RS22),2003-042A,2026-07-16T05:13:21.121248,14.73513468,.0011297,98.3468,22.3978,170.0410,300.8743,0,U,27939,999,21982,.43981E-5,-.25E-6,0
IRS-P6 (RESOURCESAT-1),2003-046A,2026-07-16T05:08:15.159840,14.36171345,.0062766,98.1889,232.3052,254.9212,182.3180,0,U,28051,999,18469,.61871E-4,.143E-5,0
SAUDISAT 2,2004-025F,2026-07-15T22:43:42.742272,14.56698464,.0024111,98.5521,197.6738,205.8266,154.1730,0,U,28371,999,16993,.31378E-4,.91E-6,0
COSMOS 2407,2004-028A,2026-07-16T03:46:47.700192,13.76336653,.0039401,82.9586,53.3740,169.3766,313.2439,0,U,28380,999,10386,.3148E-4,.46E-6,0
COSMOS 2414,2005-002A,2026-07-16T00:18:16.435872,13.87928440,.0038798,82.9488,21.8363,246.3669,113.3419,0,U,28521,999,8781,.25433E-4,.46E-6,0
INMARSAT 4-F1,2005-009A,2026-07-15T21:03:33.242976,1.00271112,.0002553,5.2068,42.7892,72.6254,312.2829,0,U,28628,999,7796,0,.2E-6,0
HAMSAT (VO-52),2005-017B,2026-07-16T00:25:28.835040,15.09963442,.001753,97.9899,221.3138,300.9173,59.0331,0,U,28650,999,15111,.16646E-3,.264E-4,0
NOAA 18,2005-018A,2026-07-16T05:02:49.856064,14.13734091,.0015268,98.8109,276.4656,70.5040,289.7781,0,U,28654,999,9041,.34795E-4,.22E-6,0
